STARLINK-3134           
1 49434U 21104AC  26080.00587538  .00000885  00000+0  73694-4 0  9997
2 49434  53.2157 178.4795 0000998  90.9346 269.1760 15.08844254241422
STARLINK-3117           
1 49435U 21104AD  26079.63328897  .00001420  00000+0  10728-3 0  9990
2 49435  53.2170 159.9939 0000995  81.3450 278.7654 15.08844565240566
STARLINK-3049           
1 49436U 21104AE  26079.63230043  .00004292  00000+0  28734-3 0  9992
2 49436  53.2169 159.9978 0001019  86.3365 273.7744 15.08873397240566
STARLINK-3130           
1 49437U 21104AF  26079.49249528  .00000006  00000+0  18476-4 0  9997
2 49437  53.2171 160.6267 0000828  86.3169 273.7918 15.08840957240546
STARLINK-3044           
1 49438U 21104AG  26079.94608622  .00001807  00000+0  13154-3 0  9999
2 49438  53.2174 158.5227 0001332  87.9948 272.1197 15.08846164240611
STARLINK-3105           
1 49440U 21104AJ  26079.94882002  .00000167  00000+0  28583-4 0  9999
2 49440  53.2163 158.5777 0000971  91.5618 268.5486 15.08841212240614
STARLINK-3128           
1 49441U 21104AK  26079.93041858  .00000059  00000+0  21814-4 0  9995
2 49441  53.2166 158.6557 0001143  72.1365 287.9752 15.08844575240617
STARLINK-3098           
1 49442U 21104AL  26079.94513983 -.00000704  00000+0 -26132-4 0  9997
2 49442  53.2170 158.5922 0001491  92.5566 267.5596 15.08830012240614
STARLINK-3136           
1 49443U 21104AM  26079.92673766  .00001477  00000+0  11086-3 0  9999
2 49443  53.2163 158.6756 0001176  87.2819 272.8308 15.08838959240613
STARLINK-3126           
1 49444U 21104AN  26079.47874060 -.00000294  00000+0 -41019-6 0  9990
2 49444  53.2129 160.6937 0001393 103.8883 256.2264 15.08837911240543
STARLINK-3122           
1 49445U 21104AP  26079.66186617 -.00000441  00000+0 -96130-5 0  9993
2 49445  53.2166 170.2608 0001128  90.5927 269.5194 15.08836043240425
STARLINK-3099           
1 49446U 21104AQ  26079.93777864  .00001056  00000+0  84437-4 0  9991
2 49446  53.2180 158.6256 0001440  80.6557 279.4598 15.08843621240616
STARLINK-3115           
1 49447U 21104AR  26079.94789873  .00000596  00000+0  55506-4 0  9999
2 49447  53.2163 168.5812 0001109  86.7197 273.3922 15.08842118240473
STARLINK-3137           
1 49449U 21104AT  26079.93118712  .00016148  00000+0  37788-3 0  9999
2 49449  53.2175 152.4048 0002617  26.3276 333.7863 15.42307940240702
STARLINK-3127           
1 49450U 21104AU  26079.95526395  .00000185  00000+0  29676-4 0  9995
2 49450  53.2183 168.5859 0001123  84.4299 275.6822 15.08844316240739
STARLINK-3125           
1 49451U 21104AV  26079.94053660  .00000530  00000+0  51351-4 0  9994
2 49451  53.2163 168.6141 0000965  86.4049 273.7054 15.08840299240474
STARLINK-3150           
1 49452U 21104AW  26079.73174192 -.00000052  00000+0  14852-4 0  9991
2 49452  53.2163 169.5915 0001314  90.7858 269.3284 15.08838410240444
STARLINK-3129           
1 49453U 21104AX  26079.54406942 -.00000340  00000+0 -33062-5 0  9998
2 49453  53.2165 170.4824 0001203  94.3437 265.7693 15.08833786240419
STARLINK-3160           
1 49454U 21104AY  26079.93685455  .00000746  00000+0  64913-4 0  9996
2 49454  53.2157 168.6321 0000894  77.9034 282.2058 15.08841424240470
STARLINK-3145           
1 49455U 21104AZ  26079.65718467 -.00002269  00000+0 -12454-3 0  9992
2 49455  53.2157 169.8854 0000860 104.9294 255.1793 15.08832805240431
STARLINK-3124           
1 49456U 21104BA  26079.93413972  .00000637  00000+0  58094-4 0  9993
2 49456  53.2157 168.6928 0001202  87.4752 272.6378 15.08840966240470
STARLINK-3132           
1 49457U 21104BB  26079.65445605 -.00000168  00000+0  75154-5 0  9998
2 49457  53.2155 169.9083 0001262  92.2575 267.8562 15.08840130240438
STARLINK-3156           
1 49458U 21104BC  26079.66085661  .00003152  00000+0  21601-3 0  9993
2 49458  53.2162 169.8708 0001311  89.7186 270.3956 15.08844690240435
STARLINK-3141           
1 49459U 21104BD  26079.98101572  .00002144  00000+0  15274-3 0  9998
2 49459  53.2154 168.4324 0001231  91.6830 268.4303 15.08846708240486
STARLINK-3140           
1 49460U 21104BE  26079.97733060  .00000951  00000+0  77814-4 0  9995
2 49460  53.2180 168.4496 0000507  82.4614 277.6435 15.08846583240478
GLOBAL-14               
1 49469U 21106A   26079.40052326  .00017280  00000+0  34706-3 0  9998
2 49469  42.0038  97.0554 0012634 130.4854 229.7091 15.46227642244360
GAOFEN-11 03            
1 49492U 21107A   26080.17975562  .00000763  00000+0  34859-4 0  9995
2 49492  97.2207 127.6855 0006487  21.6558 338.4953 15.23443288241230
GAOFEN-3 02             
1 49495U 21109A   26080.28564884  .00000136  00000+0  54369-4 0  9995
2 49495  98.4123  89.6189 0001402 246.3869 113.7174 14.42209876227644
ZHONGXING-1D            
1 49505U 21114A   26080.22593927 -.00000334  00000+0  00000+0 0  9996
2 49505   0.0244 102.1667 0002468 115.0734 173.0096  1.00270996 15937
STARLINK-3219           
1 49724U 21115A   26079.78141804  .00002745  00000+0  19049-3 0  9996
2 49724  53.2165  99.5499 0001161 103.0138 257.0984 15.08837481237204
