OBJECT_NAME,OBJECT_ID,EPOCH,MEAN_MOTION,ECCENTRICITY,INCLINATION,RA_OF_ASC_NODE,ARG_OF_PERICENTER,MEAN_ANOMALY,EPHEMERIS_TYPE,CLASSIFICATION_TYPE,NORAD_CAT_ID,ELEMENT_SET_NO,REV_AT_EPOCH,BSTAR,MEAN_MOTION_DOT,MEAN_MOTION_DDOT
STARLINK-3134,2021-104AC,2026-03-21T00:08:27.632832,15.08844254,.00009988,53.2157,178.4795,90.9346,269.1760,0,U,49434,999,24142,.73693654E-4,.885E-5,0
STARLINK-3117,2021-104AD,2026-03-20T15:11:56.167008,15.08844565,.0000995,53.2170,159.9939,81.3450,278.7654,0,U,49435,999,24056,.10728E-3,.142E-4,0
STARLINK-3049,2021-104AE,2026-03-20T15:10:30.757152,15.08873397,.0001019,53.2169,159.9978,86.3365,273.7744,0,U,49436,999,24056,.28734E-3,.4292E-4,0
STARLINK-3130,2021-104AF,2026-03-20T11:49:11.592192,15.08840957,.00008283,53.2171,160.6267,86.3169,273.7918,0,U,49437,999,24054,.18475845E-4,.6E-7,0
STARLINK-3044,2021-104AG,2026-03-20T22:42:21.849408,15.08846164,.00013328,53.2174,158.5227,87.9948,272.1197,0,U,49438,999,24061,.13154095E-3,.1807E-4,0
STARLINK-3105,2021-104AJ,2026-03-20T22:46:18.049728,15.08841212,.0000971,53.2163,158.5777,91.5618,268.5486,0,U,49440,999,24061,.28583162E-4,.167E-5,0
STARLINK-3128,2021-104AK,2026-03-20T22:19:48.165312,15.08844575,.00011434,53.2166,158.6557,72.1365,287.9752,0,U,49441,999,24061,.21813543E-4,.59E-6,0
STARLINK-3098,2021-104AL,2026-03-20T22:41:00.081312,15.08830012,.0001491,53.2170,158.5922,92.5566,267.5596,0,U,49442,999,24061,-.2613173E-4,-.704E-5,0
STARLINK-3136,2021-104AM,2026-03-20T22:14:30.133824,15.08838959,.00011763,53.2163,158.6756,87.2819,272.8308,0,U,49443,999,24061,.11085957E-3,.1477E-4,0
STARLINK-3126,2021-104AN,2026-03-20T11:29:23.187840,15.08837911,.0001393,53.2129,160.6937,103.8883,256.2264,0,U,49444,999,24054,-.410192E-6,-.294E-5,0
STARLINK-3122,2021-104AP,2026-03-20T15:53:05.237088,15.08836043,.00011289,53.2166,170.2608,90.5927,269.5194,0,U,49445,999,24042,-.9612968E-5,-.441E-5,0
STARLINK-3099,2021-104AQ,2026-03-20T22:30:24.074496,15.08843621,.00014403,53.2180,158.6256,80.6557,279.4598,0,U,49446,999,24061,.84437149E-4,.1056E-4,0
STARLINK-3115,2021-104AR,2026-03-20T22:44:58.450272,15.08842118,.00011092,53.2163,168.5812,86.7197,273.3922,0,U,49447,999,24047,.55505773E-4,.596E-5,0
STARLINK-3137,2021-104AT,2026-03-20T22:20:54.567168,15.42307940,.00026173,53.2175,152.4048,26.3276,333.7863,0,U,49449,999,24070,.37788336E-3,.16148E-3,0
STARLINK-3127,2021-104AU,2026-03-20T22:55:34.805280,15.08844316,.0001123,53.2183,168.5859,84.4299,275.6822,0,U,49450,999,24073,.29676246E-4,.185E-5,0
STARLINK-3125,2021-104AV,2026-03-20T22:34:22.362240,15.08840299,.00009654,53.2163,168.6141,86.4049,273.7054,0,U,49451,999,24047,.51350603E-4,.53E-5,0
STARLINK-3150,2021-104AW,2026-03-20T17:33:42.501888,15.08838410,.00013149,53.2163,169.5915,90.7858,269.3284,0,U,49452,999,24044,.14851841E-4,-.52E-6,0
STARLINK-3129,2021-104AX,2026-03-20T13:03:27.597888,15.08833786,.00012036,53.2165,170.4824,94.3437,265.7693,0,U,49453,999,24041,-.3306214E-5,-.34E-5,0
STARLINK-3160,2021-104AY,2026-03-20T22:29:04.233120,15.08841424,.00008943,53.2157,168.6321,77.9034,282.2058,0,U,49454,999,24047,.64912911E-4,.746E-5,0
STARLINK-3145,2021-104AZ,2026-03-20T15:46:20.755488,15.08832805,.000086,53.2157,169.8854,104.9294,255.1793,0,U,49455,999,24043,-.12454065E-3,-.2269E-4,0
STARLINK-3124,2021-104BA,2026-03-20T22:25:09.671808,15.08840966,.0001202,53.2157,168.6928,87.4752,272.6378,0,U,49456,999,24047,.5809394E-4,.637E-5,0
STARLINK-3132,2021-104BB,2026-03-20T15:42:25.002720,15.08840130,.00012623,53.2155,169.9083,92.2575,267.8562,0,U,49457,999,24043,.7515415E-5,-.168E-5,0
STARLINK-3156,2021-104BC,2026-03-20T15:51:38.011104,15.08844690,.00013117,53.2162,169.8708,89.7186,270.3956,0,U,49458,999,24043,.21601048E-3,.3152E-4,0
STARLINK-3141,2021-104BD,2026-03-20T23:32:39.758208,15.08846708,.00012318,53.2154,168.4324,91.6830,268.4303,0,U,49459,999,24048,.1527363E-3,.2144E-4,0
STARLINK-3140,2021-104BE,2026-03-20T23:27:21.363840,15.08846583,.0000507,53.2180,168.4496,82.4614,277.6435,0,U,49460,999,24047,.77814404E-4,.951E-5,0
GLOBAL-14,2021-106A,2026-03-20T09:36:45.209664,15.46227642,.00126341,42.0038,97.0554,130.4854,229.7091,0,U,49469,999,24436,.34706061E-3,.1728E-3,0
GAOFEN-11 03,2021-107A,2026-03-21T04:18:50.885568,15.23443288,.00064879,97.2207,127.6855,21.6558,338.4953,0,U,49492,999,24123,.34858696E-4,.763E-5,0
GAOFEN-3 02,2021-109A,2026-03-21T06:51:20.059776,14.42209876,.00014021,98.4123,89.6189,246.3869,113.7174,0,U,49495,999,22764,.54368556E-4,.136E-5,0
ZHONGXING-1D,2021-114A,2026-03-21T05:25:21.152928,1.00270996,.00024685,0.0244,102.1667,115.0734,173.0096,0,U,49505,999,1593,0,-.334E-5,0
STARLINK-3219,2021-115A,2026-03-20T18:45:14.518656,15.08837481,.0001161,53.2165,99.5499,103.0138,257.0984,0,U,49724,999,23720,.19049E-3,.2745E-4,0
